{
  "type": "FeatureCollection",
  "features": [
    {
      "type": "Feature",
      "properties": {
        "name": "อำเภอบ้านโป่ง",
        "name_en": "Ban Pong",
        "province": "ราชบุรี",
        "province_en": "Ratchaburi",
        "PCODE": "7003"
      },
      "geometry": {
        "type": "Polygon",
        "coordinates": [
          [
            [99.7450, 13.7200],
            [99.7600, 13.7100],
            [99.7800, 13.7000],
            [99.8000, 13.6900],
            [99.8200, 13.6850],
            [99.8400, 13.6820],
            [99.8600, 13.6800],
            [99.8800, 13.6820],
            [99.9000, 13.6900],
            [99.9200, 13.7000],
            [99.9400, 13.7100],
            [99.9600, 13.7250],
            [99.9750, 13.7400],
            [99.9900, 13.7600],
            [100.0000, 13.7800],
            [100.0050, 13.8000],
            [100.0000, 13.8200],
            [99.9900, 13.8400],
            [99.9800, 13.8600],
            [99.9700, 13.8750],
            [99.9600, 13.8900],
            [99.9500, 13.9050],
            [99.9350, 13.9200],
            [99.9200, 13.9350],
            [99.9000, 13.9450],
            [99.8800, 13.9500],
            [99.8600, 13.9480],
            [99.8400, 13.9400],
            [99.8200, 13.9300],
            [99.8000, 13.9200],
            [99.7800, 13.9100],
            [99.7600, 13.8950],
            [99.7450, 13.8800],
            [99.7350, 13.8600],
            [99.7300, 13.8400],
            [99.7280, 13.8200],
            [99.7300, 13.8000],
            [99.7350, 13.7800],
            [99.7400, 13.7600],
            [99.7430, 13.7400],
            [99.7450, 13.7200]
          ]
        ]
      }
    }
  ]
}
